[{"OBJECT_NAME":"POLYTECH-UNIVERSE 3 (RS46S)","OBJECT_ID":"2023-091AB","EPOCH":"2026-03-09T23:26:37.673088","MEAN_MOTION":15.18102693,"ECCENTRICITY":0.00173309,"INCLINATION":97.5173,"RA_OF_ASC_NODE":127.4169,"ARG_OF_PERICENTER":113.2405,"MEAN_ANOMALY":247.0656,"EPHEMERIS_TYPE":0,"CLASSIFICATION_TYPE":"U","NORAD_CAT_ID":57191,"ELEMENT_SET_NO":999,"REV_AT_EPOCH":14889,"BSTAR":0.00036949937,"MEAN_MOTION_DOT":7.497e-5,"MEAN_MOTION_DDOT":0},{"OBJECT_NAME":"OBJECT C","OBJECT_ID":"2024-203C","EPOCH":"2026-03-08T19:37:32.628864","MEAN_MOTION":15.23715458,"ECCENTRICITY":0.00114765,"INCLINATION":97.4332,"RA_OF_ASC_NODE":137.9023,"ARG_OF_PERICENTER":346.2559,"MEAN_ANOMALY":13.8364,"EPHEMERIS_TYPE":0,"CLASSIFICATION_TYPE":"U","NORAD_CAT_ID":61871,"ELEMENT_SET_NO":999,"REV_AT_EPOCH":7357,"BSTAR":0.00073309113,"MEAN_MOTION_DOT":0.00017593,"MEAN_MOTION_DDOT":0}]
